start=new Date('2022-10-02T00:00:00.000Z').valueOf();
sats=[{"RCS_SIZE":"LARGE","EPHEMERIS_TYPE":"0","SITE":"AFETR","ECCENTRICITY":"0.00013620","TLE_LINE1":"1 48681U 21044AV  22274.83847382  .00014468  00000-0  98768-3 0  9992","TIME_SYSTEM":"UTC","MEAN_MOTION_DOT":"0.00014468","INCLINATION":"53.0546","DECAY_DATE":null,"PERIOD":"95.591","ARG_OF_PERICENTER":"67.3903","REV_AT_EPOCH":"7512","ELEMENT_SET_NO":"999","REF_FRAME":"TEME","LAUNCH_DATE":"2021-05-26","CLASSIFICATION_TYPE":"U","MEAN_ELEMENT_THEORY":"SGP4","OBJECT_TYPE":"PAYLOAD","COUNTRY_CODE":"US","MEAN_MOTION_DDOT":"0.0000000000000","GP_ID":"213976786","MEAN_MOTION":"15.06420249","BSTAR":"0.00098768000000","TLE_LINE2":"2 48681  53.0546 315.1072 0001362  67.3903 292.7230 15.06420249 75124","OBJECT_ID":"2021-044AV","SEMIMAJOR_AXIS":"6925.286","RA_OF_ASC_NODE":"315.1072","APOAPSIS":"548.095","MEAN_ANOMALY":"292.7230","NORAD_CAT_ID":"48681","PERIAPSIS":"546.208","FILE":"3588844","OBJECT_NAME":"STARLINK-2725","CENTER_NAME":"EARTH","EPOCH":"2022-10-01T20:07:24.138048"},{"TIME_SYSTEM":"UTC","TLE_LINE1":"1 48682U 21044AW  22274.91667824  .00022625  00000-0  15342-2 0  9993","MEAN_MOTION_DOT":"0.00022625","INCLINATION":"53.0548","RCS_SIZE":"LARGE","ECCENTRICITY":"0.00018690","SITE":"AFETR","EPHEMERIS_TYPE":"0","CLASSIFICATION_TYPE":"U","LAUNCH_DATE":"2021-05-26","OBJECT_TYPE":"PAYLOAD","MEAN_ELEMENT_THEORY":"SGP4","ELEMENT_SET_NO":"999","REV_AT_EPOCH":"130","ARG_OF_PERICENTER":"52.0881","PERIOD":"95.594","DECAY_DATE":null,"REF_FRAME":"TEME","GP_ID":"213977038","MEAN_MOTION":"15.06368179","COUNTRY_CODE":"US","MEAN_MOTION_DDOT":"0.0000000000000","NORAD_CAT_ID":"48682","MEAN_ANOMALY":"27.5314","EPOCH":"2022-10-01T22:00:00.999936","CENTER_NAME":"EARTH","OBJECT_NAME":"STARLINK-2743","FILE":"3588844","PERIAPSIS":"546.017","OBJECT_ID":"2021-044AW","SEMIMAJOR_AXIS":"6925.446","BSTAR":"0.00153420000000","TLE_LINE2":"2 48682  53.0548 304.6857 0001869  52.0881  27.5314 15.06368179  1308","APOAPSIS":"548.605","RA_OF_ASC_NODE":"304.6857"},{"OBJECT_TYPE":"PAYLOAD","MEAN_ELEMENT_THEORY":"SGP4","CLASSIFICATION_TYPE":"U","LAUNCH_DATE":"2021-05-26","REF_FRAME":"TEME","ELEMENT_SET_NO":"999","REV_AT_EPOCH":"7526","PERIOD":"95.592","ARG_OF_PERICENTER":"50.0773","DECAY_DATE":null,"MEAN_MOTION_DOT":"-0.00001676","INCLINATION":"53.0534","TIME_SYSTEM":"UTC","TLE_LINE1":"1 48683U 21044AX  22274.79142774 -.00001676  00000-0 -93628-4 0  9992","ECCENTRICITY":"0.00018010","SITE":"AFETR","EPHEMERIS_TYPE":"0","RCS_SIZE":"LARGE","EPOCH":"2022-10-01T18:59:39.356736","CENTER_NAME":"EARTH","OBJECT_NAME":"STARLINK-2756","FILE":"3588844","PERIAPSIS":"545.955","MEAN_ANOMALY":"310.0374","NORAD_CAT_ID":"48683","APOAPSIS":"548.449","RA_OF_ASC_NODE":"305.1001","OBJECT_ID":"2021-044AX","SEMIMAJOR_AXIS":"6925.337","BSTAR":"-0.00009362800000","TLE_LINE2":"2 48683  53.0534 305.1001 0001801  50.0773 310.0374 15.06403819 75268","MEAN_MOTION":"15.06403819","GP_ID":"213977788","MEAN_MOTION_DDOT":"0.0000000000000","COUNTRY_CODE":"US"},{"TIME_SYSTEM":"UTC","TLE_LINE1":"1 48684U 21044AY  22274.54868075  .00015226  00000-0  10383-2 0  9994","INCLINATION":"53.0545","MEAN_MOTION_DOT":"0.00015226","RCS_SIZE":"LARGE","ECCENTRICITY":"0.00015510","EPHEMERIS_TYPE":"0","SITE":"AFETR","CLASSIFICATION_TYPE":"U","LAUNCH_DATE":"2021-05-26","OBJECT_TYPE":"PAYLOAD","MEAN_ELEMENT_THEORY":"SGP4","REV_AT_EPOCH":"7501","ELEMENT_SET_NO":"999","DECAY_DATE":null,"PERIOD":"95.591","ARG_OF_PERICENTER":"64.8505","REF_FRAME":"TEME","GP_ID":"213946358","MEAN_MOTION":"15.06420642","COUNTRY_CODE":"US","MEAN_MOTION_DDOT":"0.0000000000000","NORAD_CAT_ID":"48684","MEAN_ANOMALY":"295.2645","CENTER_NAME":"EARTH","OBJECT_NAME":"STARLINK-2741","EPOCH":"2022-10-01T13:10:06.016800","PERIAPSIS":"546.076","FILE":"3588593","SEMIMAJOR_AXIS":"6925.285","OBJECT_ID":"2021-044AY","BSTAR":"0.00103830000000","TLE_LINE2":"2 48684  53.0545 321.5228 0001551  64.8505 295.2645 15.06420642 75013","RA_OF_ASC_NODE":"321.5228","APOAPSIS":"548.224"},{"EPOCH":"2022-10-01T19:52:45.368832","CENTER_NAME":"EARTH","OBJECT_NAME":"STARLINK-2751","FILE":"3588844","PERIAPSIS":"545.936","MEAN_ANOMALY":"300.1657","NORAD_CAT_ID":"48685","APOAPSIS":"548.456","RA_OF_ASC_NODE":"304.9739","SEMIMAJOR_AXIS":"6925.331","OBJECT_ID":"2021-044AZ","BSTAR":"0.00012135000000","TLE_LINE2":"2 48685  53.0529 304.9739 0001819  59.9512 300.1657 15.06405774 75274","MEAN_MOTION":"15.06405774","GP_ID":"213976287","MEAN_MOTION_DDOT":"0.0000000000000","COUNTRY_CODE":"US","OBJECT_TYPE":"PAYLOAD","MEAN_ELEMENT_THEORY":"SGP4","CLASSIFICATION_TYPE":"U","LAUNCH_DATE":"2021-05-26","REF_FRAME":"TEME","ELEMENT_SET_NO":"999","REV_AT_EPOCH":"7527","PERIOD":"95.592","ARG_OF_PERICENTER":"59.9512","DECAY_DATE":null,"INCLINATION":"53.0529","MEAN_MOTION_DOT":"0.00001527","TIME_SYSTEM":"UTC","TLE_LINE1":"1 48685U 21044AZ  22274.82830288  .00001527  00000-0  12135-3 0  9998","ECCENTRICITY":"0.00018190","EPHEMERIS_TYPE":"0","SITE":"AFETR","RCS_SIZE":"LARGE"},{"OBJECT_TYPE":"PAYLOAD","MEAN_ELEMENT_THEORY":"SGP4","CLASSIFICATION_TYPE":"U","LAUNCH_DATE":"2021-05-26","REF_FRAME":"TEME","REV_AT_EPOCH":"7519","ELEMENT_SET_NO":"999","DECAY_DATE":null,"ARG_OF_PERICENTER":"50.4081","PERIOD":"95.591","MEAN_MOTION_DOT":"0.00013120","INCLINATION":"53.0539","TIME_SYSTEM":"UTC","TLE_LINE1":"1 48686U 21044BA  22274.82235267  .00013120  00000-0  89758-3 0  9992","ECCENTRICITY":"0.00018310","EPHEMERIS_TYPE":"0","SITE":"AFETR","RCS_SIZE":"LARGE","CENTER_NAME":"EARTH","OBJECT_NAME":"STARLINK-2629","EPOCH":"2022-10-01T19:44:11.270688","PERIAPSIS":"545.889","FILE":"3588844","MEAN_ANOMALY":"309.7069","NORAD_CAT_ID":"48686","RA_OF_ASC_NODE":"310.2251","APOAPSIS":"548.426","OBJECT_ID":"2021-044BA","SEMIMAJOR_AXIS":"6925.293","TLE_LINE2":"2 48686  53.0539 310.2251 0001831  50.4081 309.7069 15.06418287 75192","BSTAR":"0.00089758000000","MEAN_MOTION":"15.06418287","GP_ID":"213977538","MEAN_MOTION_DDOT":"0.0000000000000","COUNTRY_CODE":"US"},{"OBJECT_NAME":"STARLINK-2627","CENTER_NAME":"EARTH","EPOCH":"2022-10-01T19:08:17.485440","PERIAPSIS":"546.111","FILE":"3588844","NORAD_CAT_ID":"48687","MEAN_ANOMALY":"294.0440","RA_OF_ASC_NODE":"300.0538","APOAPSIS":"548.287","SEMIMAJOR_AXIS":"6925.334","OBJECT_ID":"2021-044BB","BSTAR":"0.00018618000000","TLE_LINE2":"2 48687  53.0535 300.0538 0001571  66.0714 294.0440 15.06404691 75330","MEAN_MOTION":"15.06404691","GP_ID":"213977289","MEAN_MOTION_DDOT":"0.0000000000000","COUNTRY_CODE":"US","OBJECT_TYPE":"PAYLOAD","MEAN_ELEMENT_THEORY":"SGP4","CLASSIFICATION_TYPE":"U","LAUNCH_DATE":"2021-05-26","REF_FRAME":"TEME","REV_AT_EPOCH":"7533","ELEMENT_SET_NO":"999","DECAY_DATE":null,"ARG_OF_PERICENTER":"66.0714","PERIOD":"95.592","MEAN_MOTION_DOT":"0.00002493","INCLINATION":"53.0535","TIME_SYSTEM":"UTC","TLE_LINE1":"1 48687U 21044BB  22274.79742460  .00002493  00000-0  18618-3 0  9995","ECCENTRICITY":"0.00015710","EPHEMERIS_TYPE":"0","SITE":"AFETR","RCS_SIZE":"LARGE"},{"PERIAPSIS":"546.018","FILE":"3588844","CENTER_NAME":"EARTH","OBJECT_NAME":"STARLINK-2742","EPOCH":"2022-10-01T19:13:35.844384","MEAN_ANOMALY":"305.3131","NORAD_CAT_ID":"48688","RA_OF_ASC_NODE":"300.0413","APOAPSIS":"548.404","TLE_LINE2":"2 48688  53.0548 300.0413 0001723  54.8019 305.3131 15.06400791 75339","BSTAR":"0.00020967000000","OBJECT_ID":"2021-044BC","SEMIMAJOR_AXIS":"6925.346","MEAN_MOTION":"15.06400791","GP_ID":"213976037","MEAN_MOTION_DDOT":"0.0000000000000","COUNTRY_CODE":"US","MEAN_ELEMENT_THEORY":"SGP4","OBJECT_TYPE":"PAYLOAD","LAUNCH_DATE":"2021-05-26","CLASSIFICATION_TYPE":"U","REF_FRAME":"TEME","DECAY_DATE":null,"PERIOD":"95.592","ARG_OF_PERICENTER":"54.8019","REV_AT_EPOCH":"7533","ELEMENT_SET_NO":"999","INCLINATION":"53.0548","MEAN_MOTION_DOT":"0.00002843","TLE_LINE1":"1 48688U 21044BC  22274.80110931  .00002843  00000-0  20967-3 0  9999","TIME_SYSTEM":"UTC","EPHEMERIS_TYPE":"0","SITE":"AFETR","ECCENTRICITY":"0.00017230","RCS_SIZE":"LARGE"},{"MEAN_MOTION_DOT":"0.00003417","INCLINATION":"53.0555","TLE_LINE1":"1 48689U 21044BD  22274.80617609  .00003417  00000-0  24819-3 0  9992","TIME_SYSTEM":"UTC","SITE":"AFETR","EPHEMERIS_TYPE":"0","ECCENTRICITY":"0.00017440","RCS_SIZE":"LARGE","MEAN_ELEMENT_THEORY":"SGP4","OBJECT_TYPE":"PAYLOAD","LAUNCH_DATE":"2021-05-26","CLASSIFICATION_TYPE":"U","REF_FRAME":"TEME","ARG_OF_PERICENTER":"62.6560","PERIOD":"95.592","DECAY_DATE":null,"ELEMENT_SET_NO":"999","REV_AT_EPOCH":"7526","MEAN_MOTION":"15.06398449","GP_ID":"213976787","MEAN_MOTION_DDOT":"0.0000000000000","COUNTRY_CODE":"US","FILE":"3588844","PERIAPSIS":"546.011","EPOCH":"2022-10-01T19:20:53.614176","OBJECT_NAME":"STARLINK-2617","CENTER_NAME":"EARTH","NORAD_CAT_ID":"48689","MEAN_ANOMALY":"297.4607","APOAPSIS":"548.426","RA_OF_ASC_NODE":"304.9930","TLE_LINE2":"2 48689  53.0555 304.9930 0001744  62.6560 297.4607 15.06398449 75263","BSTAR":"0.00024819000000","OBJECT_ID":"2021-044BD","SEMIMAJOR_AXIS":"6925.353"},{"FILE":"3588844","PERIAPSIS":"546.082","EPOCH":"2022-10-01T19:30:10.647072","OBJECT_NAME":"STARLINK-2740","CENTER_NAME":"EARTH","NORAD_CAT_ID":"48690","MEAN_ANOMALY":"298.3293","APOAPSIS":"548.321","RA_OF_ASC_NODE":"314.9900","TLE_LINE2":"2 48690  53.0546 314.9900 0001617  61.7859 298.3293 15.06403884 75129","BSTAR":"0.00012579000000","OBJECT_ID":"2021-044BE","SEMIMAJOR_AXIS":"6925.337","MEAN_MOTION":"15.06403884","GP_ID":"213977039","MEAN_MOTION_DDOT":"0.0000000000000","COUNTRY_CODE":"US","MEAN_ELEMENT_THEORY":"SGP4","OBJECT_TYPE":"PAYLOAD","LAUNCH_DATE":"2021-05-26","CLASSIFICATION_TYPE":"U","REF_FRAME":"TEME","PERIOD":"95.592","ARG_OF_PERICENTER":"61.7859","DECAY_DATE":null,"ELEMENT_SET_NO":"999","REV_AT_EPOCH":"7512","INCLINATION":"53.0546","MEAN_MOTION_DOT":"0.00001593","TLE_LINE1":"1 48690U 21044BE  22274.81262323  .00001593  00000-0  12579-3 0  9997","TIME_SYSTEM":"UTC","EPHEMERIS_TYPE":"0","SITE":"AFETR","ECCENTRICITY":"0.00016170","RCS_SIZE":"LARGE"}];
